C/2019 K8 (ATLAS),e,93.1016,291.0186,85.3614,2167,0.0000098,0.99852592,0.0000,07/21.3428/2019,2000,g 11.5,4.0
# From MPEC 2023-A50
C/2019 L1 (PANSTARRS),e,9.9755,254.4286,50.0571,9.833733,0.0319615,0.70484319,53.1657,02/28.0/2024,2000,g 13.5,4.0
# From MPC115886
C/2019 L2 (NEOWISE),e,152.1986,12.5561,18.8630,25.10189,0.0078369,0.93523554,14.0472,02/28.0/2024,2000,g 16.0,4.0
# From MPEC 2023-XP6
P/2019 LD2 (ATLAS),e,11.6071,179.4591,118.4027,5.200975,0.0830954,0.12709971,122.0932,02/28.0/2024,2000,g  8.5,4.0
# From MPEC 2024-DC6
C/2019 L3 (ATLAS),h,01/09.8106/2022,48.3449,290.7528,171.6568,1.002489,3.555028,2000,4.5,4.0
# From MPEC 2020-K19
P/2019 LM4 (Palomar),e,36.4168,72.8400,68.2718,5.704741,0.0723353,0.58530344,124.1095,02/28.0/2024,2000,g  9.5,4.0
# From MPC118095
C/2019 LB7 (Kleyna),e,164.2890,3.9153,336.6585,34.83240,0.0047943,0.92837539,8.6275,02/28.0/2024,2000,g 17.0,4.0
# From MPEC 2024-DC6
P/2019 M2 (ATLAS),e,12.2667,307.6121,332.5279,3.029818,0.1868870,0.64728999,320.1603,02/28.0/2024,2000,g 21.2,4.0
# From MPC118095
C/2019 M3 (ATLAS),e,99.5617,154.9686,87.9164,4951,0.0000028,0.99951031,0.0000,12/31.4504/2018,2000,g 12.2,4.0
# From MPEC 2023-JA2
C/2019 M4 (TESS),h,09/11.6786/2019,65.6785,52.6493,260.3710,1.002552,9.189928,2000,5.0,4.0
# From MPEC 2023-C45
C/2019 N1 (ATLAS),e,82.4476,13.5608,193.3821,1198,0.0000238,0.99857707,0.0000,11/30.9513/2020,2000,g  7.5,4.0
# From MPEC 2023-CD8
A/2019 N2,e,89.3542,276.1759,347.1616,1445,0.0000180,0.99865290,0.0000,08/22.6637/2019,2000,g 12.5,2.0
# From MPEC 2022-A21
C/2019 NJ3 (Lemmon),h,10/22.7469/2020,99.3920,142.4824,246.8942,1.001932,4.363433,2000,9.0,4.0
# From MPEC 2023-SQ0
A/2019 O2,e,93.3123,48.2577,129.6122,58.30331,0.0022139,0.83392919,0.7247,02/28.0/2024,2000,g  9.5,2.0
# From MPEC 2024-D33
C/2019 O3 (Palomar),h,03/09.5656/2021,89.8119,300.4460,60.1315,1.004195,8.821373,2000,3.5,4.0
# From MPEC 2021-P47
A/2019 O4,e,115.0710,354.9281,61.8704,33.25478,0.0051395,0.89034721,7.5967,02/28.0/2024,2000,g 15.5,2.0
# From MPEC 2023-A50
C/2019 Q1 (Lemmon),h,07/21.2890/2020,155.7313,42.4566,56.2365,1.001549,5.004820,2000,8.5,4.0
# From MPC117072
A/2019 Q2,e,159.0159,188.0392,176.4485,58.33287,0.0022122,0.97833584,0.0000,07/22.4946/2019,2000,g 18.0,2.0
# From MPC117072
P/2019 S2 (PANSTARRS),e,10.4648,93.1863,217.0879,4.744877,0.0953601,0.20512312,174.8699,02/28.0/2024,2000,g 13.5,4.0
# From MPEC 2022-CN4
P/2019 S3 (PANSTARRS),e,8.6940,150.1655,213.0621,3.415223,0.1561620,0.47102550,256.9333,02/28.0/2024,2000,g 18.3,4.0
# From MPEC 2021-S45
C/2019 S4 (Lemmon),e,92.1037,63.1579,71.3720,239.5543,0.0002658,0.98563230,0.0000,04/08.4212/2020,2000,g 11.0,4.0
# From MPEC 2023-N01
A/2019 T1,e,120.8635,6.9439,91.0519,38.83450,0.0040727,0.88980265,4.6388,02/28.0/2024,2000,g 13.0,2.0
# From MPEC 2023-R20
C/2019 T2 (Lemmon),e,111.4427,155.6553,239.4251,5010,0.0000028,0.99947195,0.0000,04/22.6506/2021,2000,g  9.0,4.0
# From MPEC 2023-UR6
C/2019 T3 (ATLAS),e,121.8417,139.5327,112.4592,3374,0.0000050,0.99823596,0.0000,03/04.3016/2021,2000,g  6.8,4.0
# From MPEC 2024-DC6
C/2019 T4 (ATLAS),e,53.6298,199.9347,351.1368,903.4338,0.0000363,0.99530616,0.0000,06/08.7531/2022,2000,g  5.0,4.0
# From MPEC 2021-P47
P/2019 T5 (ATLAS),e,33.4929,247.6137,189.5823,8.000874,0.0435510,0.80977557,72.7509,02/28.0/2024,2000,g 15.0,4.0
# From MPEC 2021-P47
P/2019 T6 (PANSTARRS),e,18.6986,71.2491,329.0062,5.439715,0.0776855,0.62302091,122.1243,02/28.0/2024,2000,g 15.5,4.0
# From MPC118096
P/2019 U4 (PANSTARRS),e,11.6983,200.0192,181.0403,3.519802,0.1492543,0.47598040,242.0481,02/28.0/2024,2000,g 19.0,4.0
# From MPEC 2024-DC6
C/2019 U5 (PANSTARRS),h,03/29.7245/2023,113.5153,2.6332,181.4734,1.001019,3.623946,2000,4.5,4.0
# From MPEC 2022-H04
C/2019 U6 (Lemmon),e,60.9666,235.7874,329.5091,321.3145,0.0001711,0.99716376,0.0000,06/18.2870/2020,2000,g 10.0,4.0
# From MPEC 2022-N37
C/2019 V1 (Borisov),e,61.9313,83.1518,51.1706,1773,0.0000132,0.99825488,0.0000,07/16.7475/2020,2000,g 11.0,4.0
# From MPEC 2022-L66
P/2019 V2 (Groeller),e,11.8075,189.1762,335.6630,7.496272,0.0480215,0.33129541,59.0278,02/28.0/2024,2000,g 10.0,4.0
# From MPEC 2023-A50
P/2019 W1 (PANSTARRS),e,23.4748,35.3760,18.7852,4.548854,0.1015900,0.26728023,178.2615,02/28.0/2024,2000,g 12.9,4.0
# From MPEC 2021-P47
P/2019 X1 (Pruyne),e,10.2502,43.6796,36.8469,6.175769,0.0642196,0.30391305,107.9447,02/28.0/2024,2000,g 10.4,4.0
# From MPEC 2020-C98
P/2019 X2 (Pan-STARRS),e,15.8952,250.8399,213.4529,3.635992,0.1421575,0.50006991,219.0571,02/28.0/2024,2000,g 18.0,4.0
# From MPC119999
C/2019 Y1 (ATLAS),e,73.3750,31.5389,57.9112,87.19339,0.0012105,0.99050387,0.0000,03/16.4246/2020,2000,g 13.7,4.0
# From MPEC 2020-C98
P/2019 Y3 (Catalina),e,24.6015,139.3039,2.5800,3.014302,0.1883319,0.69114165,290.4688,02/28.0/2024,2000,g 18.5,4.0
# From MPEC 2024-A43
C/2019 Y4 (ATLAS),e,45.1066,120.7140,177.4439,354.0225,0.0001480,0.99927640,0.0000,05/30.5844/2020,2000,g 11.8,6.0
# From MPEC 2020-L06
C/2019 Y4-A (ATLAS),h,05/30.6189/2020,45.5467,121.0777,177.2777,1.001410,0.254330,2000,11.6,6.0
# From MPEC 2023-J29
C/2019 Y4-B (ATLAS),h,05/30.5930/2020,45.2366,120.8209,177.3883,1.000007,0.255643,2000,12.1,6.0
# From MPEC 2020-L06
C/2019 Y4-C (ATLAS),h,05/30.5715/2020,45.3295,120.8046,177.3109,1.002136,0.255403,2000,12.7,6.0
# From MPEC 2020-L06
C/2019 Y4-D (ATLAS),e,45.3771,121.1742,177.4500,68.18440,0.0017506,0.99626432,0.0000,05/30.6932/2020,2000,g 12.5,6.0
# From MPEC 2023-A50
C/2019 Y5 (PANSTARRS),e,82.7615,51.7505,303.5996,722.8281,0.0000507,0.99318693,0.0000,08/17.5198/2019,2000,g 11.0,4.0
# From MPEC 2023-A50
A/2020 A1,e,149.0340,119.1515,302.4460,25.54972,0.0076318,0.93475832,11.8241,02/28.0/2024,2000,g 18.0,2.0
# From MPEC 2022-YN2
C/2020 A2 (Iwamoto),e,120.5743,286.2524,68.0460,1211,0.0000234,0.99919619,0.0000,01/08.2498/2020,2000,g 13.5,4.0
# From MPEC 2023-A50
C/2020 A3 (ATLAS),h,06/28.5441/2019,146.6491,120.8047,268.3155,1.000246,5.756337,2000,8.0,4.0
# From MPEC 2022-P91
P/2020 A4 (PANSTARRS-Lemmon),e,24.9927,312.3490,144.7925,8.196149,0.0420039,0.65429553,65.4200,02/28.0/2024,2000,g 15.0,4.0
# From MPEC 2020-N08
A/2020 B1,e,18.5239,309.9100,154.7485,51.61163,0.0026582,0.96630733,4.0515,02/28.0/2024,2000,g 21.0,2.0
# From MPEC 2020-HN5
C/2020 B2 (Lemmon),e,55.7525,354.2720,143.5961,67.66939,0.0017706,0.95923061,2.6440,02/28.0/2024,2000,g 10.0,4.0
# From MPEC 2022-N37
C/2020 B3 (Rankin),e,20.7084,185.8257,324.8848,944.8330,0.0000339,0.99647322,0.0000,10/19.7512/2019,2000,g 13.0,4.0
# From MPEC 2023-KD6
P/2020 B4 (Sheppard),e,11.6075,185.9746,341.9986,7.967941,0.0438213,0.19213092,36.4460,02/28.0/2024,2000,g 10.5,4.0
# From MPEC 2024-DC6
C/2020 F2 (ATLAS),h,07/14.0335/2022,163.5894,250.3008,48.2958,1.004725,8.815394,2000,4.5,4.0
# From MPEC 2021-O56
C/2020 F3 (NEOWISE),e,129.1426,61.0918,37.3891,376.8418,0.0001347,0.99921721,0.0000,07/04.1184/2020,2000,g  7.5,5.2
# From MPEC 2024-BE0
C/2020 F5 (MASTER),e,52.2086,350.5033,310.6764,170.8463,0.0004414,0.97467765,0.0000,03/17.0569/2021,2000,g  6.5,3.2
# From MPEC 2020-L06
C/2020 F6 (PANSTARRS),e,174.5831,207.8949,344.4724,379.7440,0.0001332,0.99077892,0.0000,04/11.4564/2020,2000,g 14.5,2.8
# From MPEC 2024-A43
C/2020 F7 (Lemmon),e,93.9575,321.8533,227.9499,557.3217,0.0000749,0.99043177,0.0000,11/13.6338/2021,2000,g  7.0,4.0
# From MPEC 2023-J29
C/2020 F8 (SWAN),h,05/26.8925/2020,110.5840,259.8349,68.0751,1.000144,0.430081,2000,10.0,4.0
# From MPEC 2020-L06
P/2020 G1 (Pimentel),e,18.5108,240.1093,207.6172,3.607792,0.1438275,0.86063456,207.3797,02/28.0/2024,2000,g 17.0,4.0
# From MPEC 2022-YB4
C/2020 H2 (Pruyne),e,124.8462,277.6701,26.6334,185.6075,0.0003898,0.99552882,0.0000,04/27.7146/2020,2000,g 14.0,3.2
# From MPEC 2020-HM1
C/2020 H3 (Wierzchos),p,06/05.7162/2020,62.5292,30.4456,2.300288,270.6227,2000,13.5,4.0
# From MPEC 2020-L06
C/2020 H4 (Leonard),e,84.4975,307.5953,117.5185,47.81901,0.0029806,0.98066269,0.0000,08/29.5948/2020,2000,g 15.0,3.2
# From MPEC 2023-VM5
C/2020 H5 (Robinson),e,70.2537,210.6269,326.3018,4447,0.0000033,0.99789970,0.0000,12/10.2574/2020,2000,g  5.0,4.0
# From MPEC 2024-AF0
C/2020 H6 (ATLAS),e,79.9782,213.7186,20.2610,3607,0.0000045,0.99869692,0.0000,09/30.2818/2021,2000,g  8.0,3.2
# From MPEC 2020-KB7
C/2020 H7 (Lemmon),e,135.9235,323.5194,82.6780,1405,0.0000187,0.99685380,0.0000,06/02.9510/2020,2000,g 11.0,4.0
# From MPEC 2021-N06
C/2020 H8 (PANSTARRS),e,99.7026,68.4395,128.9063,599.8279,0.0000671,0.99221139,0.0000,06/04.5708/2020,2000,g 10.5,4.0
# From MPEC 2022-ED3
A/2020 H9,e,137.8788,213.1791,312.7691,363.3776,0.0001423,0.99292952,0.0000,12/21.8574/2019,2000,g 18.0,2.0
# From MPEC 2023-HN7
C/2020 H11 (PANSTARRS-Lemmon),h,09/14.3641/2020,151.3905,303.0464,91.4325,1.001583,7.624497,2000,8.5,4.0
# From MPEC 2023-KD6
C/2020 J1 (SONEAR),h,04/18.5386/2021,142.3059,226.6101,341.6944,1.000487,3.350291,2000,8.5,3.2
# From MPEC 2024-DC6
C/2020 K1 (PANSTARRS),e,89.6732,94.3614,213.9823,9879,0.0000010,0.99968889,0.0000,05/09.0606/2023,2000,g  5.5,4.0
# From MPEC 2021-N06
C/2020 K2 (PANSTARRS),h,08/05.9672/2020,91.0080,288.4112,67.3452,1.002762,8.880583,2000,10.8,4.0
# From MPEC 2020-KF9
C/2020 K3 (Leonard),p,06/01.0032/2020,129.0152,64.4924,1.583069,28.3546,2000,14.5,4.0
# From MPEC 2020-L06
C/2020 K4 (PANSTARRS),e,125.5852,264.2433,308.8591,23.96898,0.0083990,0.92694106,12.2264,02/28.0/2024,2000,g 16.5,4.0
# From MPEC 2021-R75
C/2020 K5 (PANSTARRS),h,06/05.1869/2021,67.0888,86.1519,249.6257,1.001192,1.537990,2000,11.0,4.0
# From MPEC 2023-N01
C/2020 K6 (Rankin),h,09/15.6700/2021,103.6444,291.5748,44.3294,1.003401,5.868375,2000,8.0,4.0
# From MPEC 2023-A50
C/2020 K7 (PANSTARRS),e,32.0440,286.1028,358.2098,97.00368,0.0010316,0.93408457,1.6349,02/28.0/2024,2000,g  8.0,4.0
# From MPEC 2021-P47
C/2020 K8 (Catalina-ATLAS),h,09/15.1588/2020,31.4411,181.4919,259.9789,1.000232,0.471200,2000,15.0,3.2
# From MPEC 2021-BE3
P/2020 K9 (Lemmon-PANSTARRS),e,23.2036,166.3128,197.0628,4.204755,0.1143123,0.32090566,126.9633,02/28.0/2024,2000,g 12.5,4.0
# From MPEC 2023-C45
